CCSDS_OMM_VERS = 2.0
CREATION_DATE  = 
ORIGINATOR     = 

OBJECT_NAME    = STARLINK-37046
OBJECT_ID      = 2026-044B
CENTER_NAME    = EARTH
REF_FRAME      = TEME
TIME_SYSTEM    = UTC
MEAN_ELEMENT_THEORY = SGP/SGP4

EPOCH          = 2026-04-01T04:00:03.999744
MEAN_MOTION    = 15.59947381
ECCENTRICITY   = .0001734
INCLINATION    = 97.2851
RA_OF_ASC_NODE = 52.3660
ARG_OF_PERICENTER = 89.3682
MEAN_ANOMALY   = 331.1028

EPHEMERIS_TYPE = 0
CLASSIFICATION_TYPE = U
NORAD_CAT_ID   = 68102
ELEMENT_SET_NO = 999
REV_AT_EPOCH   = 501
BSTAR          = -.26908E-1
MEAN_MOTION_DOT = -.1914581E-1
MEAN_MOTION_DDOT = 0

CCSDS_OMM_VERS = 2.0
CREATION_DATE  = 
ORIGINATOR     = 

OBJECT_NAME    = STARLINK-37018
OBJECT_ID      = 2026-044C
CENTER_NAME    = EARTH
REF_FRAME      = TEME
TIME_SYSTEM    = UTC
MEAN_ELEMENT_THEORY = SGP/SGP4

EPOCH          = 2026-04-01T04:00:03.999744
MEAN_MOTION    = 15.60208376
ECCENTRICITY   = .0001716
INCLINATION    = 97.2853
RA_OF_ASC_NODE = 52.3714
ARG_OF_PERICENTER = 90.6663
MEAN_ANOMALY   = 341.0994

EPHEMERIS_TYPE = 0
CLASSIFICATION_TYPE = U
NORAD_CAT_ID   = 68103
ELEMENT_SET_NO = 999
REV_AT_EPOCH   = 496
BSTAR          = -.26726E-1
MEAN_MOTION_DOT = -.1920058E-1
MEAN_MOTION_DDOT = 0

CCSDS_OMM_VERS = 2.0
CREATION_DATE  = 
ORIGINATOR     = 

OBJECT_NAME    = STARLINK-37041
OBJECT_ID      = 2026-044D
CENTER_NAME    = EARTH
REF_FRAME      = TEME
TIME_SYSTEM    = UTC
MEAN_ELEMENT_THEORY = SGP/SGP4

EPOCH          = 2026-04-01T04:00:03.999744
MEAN_MOTION    = 15.61058609
ECCENTRICITY   = .0001766
INCLINATION    = 97.2853
RA_OF_ASC_NODE = 52.3785
ARG_OF_PERICENTER = 91.0984
MEAN_ANOMALY   = 357.2124

EPHEMERIS_TYPE = 0
CLASSIFICATION_TYPE = U
NORAD_CAT_ID   = 68104
ELEMENT_SET_NO = 999
REV_AT_EPOCH   = 496
BSTAR          = -.25903E-1
MEAN_MOTION_DOT = -.1922669E-1
MEAN_MOTION_DDOT = 0

CCSDS_OMM_VERS = 2.0
CREATION_DATE  = 
ORIGINATOR     = 

OBJECT_NAME    = STARLINK-37021
OBJECT_ID      = 2026-044E
CENTER_NAME    = EARTH
REF_FRAME      = TEME
TIME_SYSTEM    = UTC
MEAN_ELEMENT_THEORY = SGP/SGP4

EPOCH          = 2026-04-01T04:00:03.999744
MEAN_MOTION    = 15.59146192
ECCENTRICITY   = .0001678
INCLINATION    = 97.2850
RA_OF_ASC_NODE = 52.3702
ARG_OF_PERICENTER = 95.0889
MEAN_ANOMALY   = 336.6434

EPHEMERIS_TYPE = 0
CLASSIFICATION_TYPE = U
NORAD_CAT_ID   = 68105
ELEMENT_SET_NO = 999
REV_AT_EPOCH   = 496
BSTAR          = -.27775E-1
MEAN_MOTION_DOT = -.1916413E-1
MEAN_MOTION_DDOT = 0

CCSDS_OMM_VERS = 2.0
CREATION_DATE  = 
ORIGINATOR     = 

OBJECT_NAME    = STARLINK-37024
OBJECT_ID      = 2026-044F
CENTER_NAME    = EARTH
REF_FRAME      = TEME
TIME_SYSTEM    = UTC
MEAN_ELEMENT_THEORY = SGP/SGP4

EPOCH          = 2026-04-01T04:00:03.999744
MEAN_MOTION    = 15.61214525
ECCENTRICITY   = .0001835
INCLINATION    = 97.2851
RA_OF_ASC_NODE = 52.3847
ARG_OF_PERICENTER = 92.8360
MEAN_ANOMALY   = 11.3367

EPHEMERIS_TYPE = 0
CLASSIFICATION_TYPE = U
NORAD_CAT_ID   = 68106
ELEMENT_SET_NO = 999
REV_AT_EPOCH   = 496
BSTAR          = -.25735E-1
MEAN_MOTION_DOT = -.1921878E-1
MEAN_MOTION_DDOT = 0

CCSDS_OMM_VERS = 2.0
CREATION_DATE  = 
ORIGINATOR     = 

OBJECT_NAME    = STARLINK-37005
OBJECT_ID      = 2026-044G
CENTER_NAME    = EARTH
REF_FRAME      = TEME
TIME_SYSTEM    = UTC
MEAN_ELEMENT_THEORY = SGP/SGP4

EPOCH          = 2026-04-01T04:00:03.999744
MEAN_MOTION    = 15.60458667
ECCENTRICITY   = .0001747
INCLINATION    = 97.2849
RA_OF_ASC_NODE = 52.3741
ARG_OF_PERICENTER = 91.3496
MEAN_ANOMALY   = 347.5854

EPHEMERIS_TYPE = 0
CLASSIFICATION_TYPE = U
NORAD_CAT_ID   = 68107
ELEMENT_SET_NO = 999
REV_AT_EPOCH   = 496
BSTAR          = -.26477E-1
MEAN_MOTION_DOT = -.1920535E-1
MEAN_MOTION_DDOT = 0

CCSDS_OMM_VERS = 2.0
CREATION_DATE  = 
ORIGINATOR     = 

OBJECT_NAME    = STARLINK-37017
OBJECT_ID      = 2026-044H
CENTER_NAME    = EARTH
REF_FRAME      = TEME
TIME_SYSTEM    = UTC
MEAN_ELEMENT_THEORY = SGP/SGP4

EPOCH          = 2026-04-01T04:00:03.999744
MEAN_MOTION    = 15.61873288
ECCENTRICITY   = .0001663
INCLINATION    = 97.2848
RA_OF_ASC_NODE = 52.3892
ARG_OF_PERICENTER = 100.7921
MEAN_ANOMALY   = 13.0415

EPHEMERIS_TYPE = 0
CLASSIFICATION_TYPE = U
NORAD_CAT_ID   = 68108
ELEMENT_SET_NO = 999
REV_AT_EPOCH   = 496
BSTAR          = -.25115E-1
MEAN_MOTION_DOT = -.192385E-1
MEAN_MOTION_DDOT = 0

CCSDS_OMM_VERS = 2.0
CREATION_DATE  = 
ORIGINATOR     = 

OBJECT_NAME    = STARLINK-36833
OBJECT_ID      = 2026-044J
CENTER_NAME    = EARTH
REF_FRAME      = TEME
TIME_SYSTEM    = UTC
MEAN_ELEMENT_THEORY = SGP/SGP4

EPOCH          = 2026-04-01T04:00:03.999744
MEAN_MOTION    = 15.62314118
ECCENTRICITY   = .0001811
INCLINATION    = 97.2849
RA_OF_ASC_NODE = 52.3936
ARG_OF_PERICENTER = 100.7597
MEAN_ANOMALY   = 25.9966

EPHEMERIS_TYPE = 0
CLASSIFICATION_TYPE = U
NORAD_CAT_ID   = 68109
ELEMENT_SET_NO = 999
REV_AT_EPOCH   = 501
BSTAR          = -.24706E-1
MEAN_MOTION_DOT = -.1925286E-1
MEAN_MOTION_DDOT = 0

CCSDS_OMM_VERS = 2.0
CREATION_DATE  = 
ORIGINATOR     = 

OBJECT_NAME    = STARLINK-36830
OBJECT_ID      = 2026-044K
CENTER_NAME    = EARTH
REF_FRAME      = TEME
TIME_SYSTEM    = UTC
MEAN_ELEMENT_THEORY = SGP/SGP4

EPOCH          = 2026-04-01T04:00:03.999744
MEAN_MOTION    = 15.62181954
ECCENTRICITY   = .00018
INCLINATION    = 97.2850
RA_OF_ASC_NODE = 52.3920
ARG_OF_PERICENTER = 101.2522
MEAN_ANOMALY   = 20.0481

EPHEMERIS_TYPE = 0
CLASSIFICATION_TYPE = U
NORAD_CAT_ID   = 68110
ELEMENT_SET_NO = 999
REV_AT_EPOCH   = 501
BSTAR          = -.24842E-1
MEAN_MOTION_DOT = -.1925828E-1
MEAN_MOTION_DDOT = 0

CCSDS_OMM_VERS = 2.0
CREATION_DATE  = 
ORIGINATOR     = 

OBJECT_NAME    = STARLINK-36791
OBJECT_ID      = 2026-044L
CENTER_NAME    = EARTH
REF_FRAME      = TEME
TIME_SYSTEM    = UTC
MEAN_ELEMENT_THEORY = SGP/SGP4

EPOCH          = 2026-04-01T04:00:03.999744
MEAN_MOTION    = 15.62687737
ECCENTRICITY   = .0001764
INCLINATION    = 97.2848
RA_OF_ASC_NODE = 52.3995
ARG_OF_PERICENTER = 95.6869
MEAN_ANOMALY   = 43.1054

EPHEMERIS_TYPE = 0
CLASSIFICATION_TYPE = U
NORAD_CAT_ID   = 68111
ELEMENT_SET_NO = 999
REV_AT_EPOCH   = 496
BSTAR          = -.24318E-1
MEAN_MOTION_DOT = -.1923163E-1
MEAN_MOTION_DDOT = 0

CCSDS_OMM_VERS = 2.0
CREATION_DATE  = 
ORIGINATOR     = 

OBJECT_NAME    = STARLINK-36893
OBJECT_ID      = 2026-044M
CENTER_NAME    = EARTH
REF_FRAME      = TEME
TIME_SYSTEM    = UTC
MEAN_ELEMENT_THEORY = SGP/SGP4

EPOCH          = 2026-04-01T04:00:03.999744
MEAN_MOTION    = 15.62935740
ECCENTRICITY   = .0001743
INCLINATION    = 97.2848
RA_OF_ASC_NODE = 52.4024
ARG_OF_PERICENTER = 103.1412
MEAN_ANOMALY   = 44.3183

EPHEMERIS_TYPE = 0
CLASSIFICATION_TYPE = U
NORAD_CAT_ID   = 68112
ELEMENT_SET_NO = 999
REV_AT_EPOCH   = 501
BSTAR          = -.24018E-1
MEAN_MOTION_DOT = -.1918587E-1
MEAN_MOTION_DDOT = 0

CCSDS_OMM_VERS = 2.0
CREATION_DATE  = 
ORIGINATOR     = 

OBJECT_NAME    = STARLINK-36937
OBJECT_ID      = 2026-044N
CENTER_NAME    = EARTH
REF_FRAME      = TEME
TIME_SYSTEM    = UTC
MEAN_ELEMENT_THEORY = SGP/SGP4

EPOCH          = 2026-04-01T04:00:03.999744
MEAN_MOTION    = 15.63262738
ECCENTRICITY   = .0001713
INCLINATION    = 97.2848
RA_OF_ASC_NODE = 52.4065
ARG_OF_PERICENTER = 98.5711
MEAN_ANOMALY   = 58.2058

EPHEMERIS_TYPE = 0
CLASSIFICATION_TYPE = U
NORAD_CAT_ID   = 68113
ELEMENT_SET_NO = 999
REV_AT_EPOCH   = 496
BSTAR          = -.23834E-1
MEAN_MOTION_DOT = -.1927377E-1
MEAN_MOTION_DDOT = 0

